{
    "links": {
        "self": "http://www.neowsapp.com/rest/v1/neo/3334361?api_key=iIulBulltgU6a56xZRHN4H3l9WmuAYTsLGpBGhQ2"
    },
    "id": "3334361",
    "neo_reference_id": "3334361",
    "name": "(2006 KS38)",
    "designation": "2006 KS38",
    "nasa_jpl_url": "http://ssd.jpl.nasa.gov/sbdb.cgi?sstr=3334361",
    "absolute_magnitude_h": 23.9,
    "estimated_diameter": {
        "kilometers": {
            "estimated_diameter_min": 0.04411182,
            "estimated_diameter_max": 0.0986370281
        },
        "meters": {
            "estimated_diameter_min": 44.1118199997,
            "estimated_diameter_max": 98.6370281305
        },
        "miles": {
            "estimated_diameter_min": 0.0274098057,
            "estimated_diameter_max": 0.0612901888
        },
        "feet": {
            "estimated_diameter_min": 144.7238235278,
            "estimated_diameter_max": 323.6123073718
        }
    },
    "is_potentially_hazardous_asteroid": false,
    "close_approach_data": [
        {
            "close_approach_date": "2000-12-07",
            "close_approach_date_full": "2000-Dec-07 22:39",
            "epoch_date_close_approach": 976228740000,
            "relative_velocity": {
                "kilometers_per_second": "18.9844591386",
                "kilometers_per_hour": "68344.0528990381",
                "miles_per_hour": "42466.3366471829"
            },
            "miss_distance": {
                "astronomical": "0.17173677",
                "lunar": "66.80560353",
                "kilometers": "25691454.9926799",
                "miles": "15963929.87518662"
            },
            "orbiting_body": "Earth"
        },
        {
            "close_approach_date": "2006-05-23",
            "close_approach_date_full": "2006-May-23 17:50",
            "epoch_date_close_approach": 1148406600000,
            "relative_velocity": {
                "kilometers_per_second": "19.4022611698",
                "kilometers_per_hour": "69848.1402113358",
                "miles_per_hour": "43400.9180107603"
            },
            "miss_distance": {
                "astronomical": "0.0235916759",
                "lunar": "9.1771619251",
                "kilometers": "3529264.464370333",
                "miles": "2192983.2481752754"
            },
            "orbiting_body": "Earth"
        }
    ],
    "orbital_data": {
        "orbit_id": "7",
        "orbit_determination_date": "2017-04-06 09:08:36",
        "first_observation_date": "2006-05-23",
        "last_observation_date": "2006-05-26",
        "data_arc_in_days": 3,
        "observations_used": 34,
        "orbit_uncertainty": "8",
        "minimum_orbit_intersection": ".022332",
        "jupiter_tisserand_invariant": "4.456",
        "epoch_osculation": "2453881.5",
        "eccentricity": ".4558495581586797",
        "semi_major_axis": "1.430630676306377",
        "inclination": "28.70283205169111",
        "ascending_node_longitude": "63.49303992754054",
        "orbital_period": "625.013972934804",
        "perihelion_distance": ".7784783146238622",
        "perihelion_argument": "101.0892357472059",
        "aphelion_distance": "2.082783037988893",
        "perihelion_time": "2453824.719136234659",
        "mean_anomaly": "32.70504635206771",
        "mean_motion": ".5759871228311756",
        "equinox": "J2000",
        "orbit_class": {
            "orbit_class_type": "APO",
            "orbit_class_description": "Near-Earth asteroid orbits which cross the Earth’s orbit similar to that of 1862 Apollo",
            "orbit_class_range": "a (semi-major axis) > 1.0 AU; q (perihelion) < 1.017 AU"
        }
    },
    "is_sentry_object": false
}